

*******************************************************************************
Ephemeris / WWW_USER Tue Mar 12 06:55:59 2024 Pasadena, USA      / Horizons
*******************************************************************************
Target body name: SOHO (spacecraft) (-21)         {source: SOHO_merged}
Center body name: Earth (399)                     {source: DE441}
Center-site name: BODY CENTER
*******************************************************************************
Start time      : A.D. 1995-Dec-02 00:02:00.0000 TDB
Stop  time      : A.D. 2005-Jan-01 00:00:00.0000 TDB
Step-size       : 1440 minutes
*******************************************************************************
Center geodetic : 0.0, 0.0, 0.0                   {E-lon(deg),Lat(deg),Alt(km)}
Center cylindric: 0.0, 0.0, 0.0                   {E-lon(deg),Dxy(km),Dz(km)}
Center radii    : 6378.137, 6378.137, 6356.752 km {Equator_a, b, pole_c}
Output units    : KM-S
Calendar mode   : Mixed Julian/Gregorian
Output type     : GEOMETRIC cartesian states
Output format   : 2 (position and velocity)
EOP file        : eop.240311.p240604
EOP coverage    : DATA-BASED 1962-JAN-20 TO 2024-MAR-11. PREDICTS-> 2024-JUN-03
Reference frame : ICRF
*******************************************************************************
            JDTDB,            Calendar Date (TDB),                      X,                      Y,                      Z,                     VX,                     VY,                     VZ,
**************************************************************************************************************************************************************************************************
$$SOE
2452237.501388889, A.D. 2001-Nov-24 00:02:00.0000, -1.219283813428856E+06, -9.227063683815835E+05, -4.802684689714963E+05,  1.574369965566993E-01, -1.049635698489932E-01, -5.256914107906016E-04,
2452238.501388889, A.D. 2001-Nov-25 00:02:00.0000, -1.205479853117605E+06, -9.318383935371020E+05, -4.802890990287586E+05,  1.621168582333093E-01, -1.064825965589715E-01,  1.809485648481356E-05,
2452239.501388889, A.D. 2001-Nov-26 00:02:00.0000, -1.191265683338915E+06, -9.411164972629055E+05, -4.802707292693832E+05,  1.669479926674343E-01, -1.083461198412475E-01,  3.747675838910927E-04,
2452240.501388889, A.D. 2001-Nov-27 00:02:00.0000, -1.176624102008929E+06, -9.505705605593021E+05, -4.802300802309280E+05,  1.720257826390263E-01, -1.105550432619285E-01,  5.322298355643553E-04,
2452241.501388889, A.D. 2001-Nov-28 00:02:00.0000, -1.161529497253607E+06, -9.602300133087899E+05, -4.801847230232481E+05,  1.774551474235805E-01, -1.130968467156062E-01,  4.830941946890836E-04,
2452242.501388889, A.D. 2001-Nov-29 00:02:00.0000, -1.145946469600830E+06, -9.701223711668281E+05, -4.801525467208251E+05,  1.833499853114883E-01, -1.159389203306814E-01,  2.278738976713713E-04,
2452243.501388889, A.D. 2001-Nov-30 00:02:00.0000, -1.129829811254906E+06, -9.802712231794376E+05, -4.801509519138047E+05,  1.898288985647986E-01, -1.190215494151270E-01, -2.216414983930135E-04,
2452244.501388889, A.D. 2001-Dec-01 00:02:00.0000, -1.113123905016719E+06, -9.906935737553044E+05, -4.801956863192036E+05,  1.970063842890149E-01, -1.222515063533606E-01, -8.387487610397373E-04,
2452245.501388889, A.D. 2001-Dec-02 00:02:00.0000, -1.095764159190307E+06, -1.001396904887151E+06, -4.802994584498696E+05,  2.049786171241421E-01, -1.255005693173612E-01, -1.579298745073768E-03,
2452246.501388889, A.D. 2001-Dec-03 00:02:00.0000, -1.077678869902228E+06, -1.012376075301941E+06, -4.804704031783855E+05,  2.138091880499255E-01, -1.286090282166042E-01, -2.382228480562151E-03,
2452247.501388889, A.D. 2001-Dec-04 00:02:00.0000, -1.058792626892998E+06, -1.023611238738368E+06, -4.807107565584422E+05,  2.235151505106793E-01, -1.313963630849493E-01, -3.172591158577060E-03,
2452248.501388889, A.D. 2001-Dec-05 00:02:00.0000, -1.039031232200705E+06, -1.035066760697687E+06, -4.810158858659852E+05,  2.340596664191183E-01, -1.336767655895565E-01, -3.867500005941787E-03,
2452249.501388889, A.D. 2001-Dec-06 00:02:00.0000, -1.018325605321703E+06, -1.046690948485947E+06, -4.813739146517860E+05,  2.453521133261632E-01, -1.352761834099208E-01, -4.383763045107641E-03,
2452250.501388889, A.D. 2001-Dec-07 00:02:00.0000, -9.966167606464723E+05, -1.058418596276158E+06, -4.817660387762882E+05,  2.572545533668368E-01, -1.360473055786154E-01, -4.644869344700602E-03,
2452251.501388889, A.D. 2001-Dec-08 00:02:00.0000, -9.738593519672267E+05, -1.070172879548299E+06, -4.821673665952007E+05,  2.695943683681418E-01, -1.358807707226009E-01, -4.587753690027478E-03,
2452252.501388889, A.D. 2001-Dec-09 00:02:00.0000, -9.500238402929003E+05, -1.081869824367743E+06, -4.825483027190930E+05,  2.821773624593629E-01, -1.347123090170395E-01, -4.166704613320764E-03,
2452253.501388889, A.D. 2001-Dec-10 00:02:00.0000, -9.250978846953326E+05, -1.093421802692029E+06, -4.828761568055568E+05,  2.948029254205793E-01, -1.325262590712964E-01, -3.356949128847949E-03,
2452254.501388889, A.D. 2001-Dec-11 00:02:00.0000, -8.990862686319845E+05, -1.104742018047605E+06, -4.831171107637353E+05,  3.072771641858668E-01, -1.293561493579062E-01, -2.156604275113870E-03,
2452255.501388889, A.D. 2001-Dec-12 00:02:00.0000, -8.720094342423764E+05, -1.115748810880656E+06, -4.832383619743591E+05,  3.194252229250776E-01, -1.252820252256449E-01, -5.858512972614788E-04,
2452256.501388889, A.D. 2001-Dec-13 00:02:00.0000, -8.439028795503592E+05, -1.126368320191525E+06, -4.832091169126716E+05,  3.311008597988625E-01, -1.204199309306670E-01,  1.313221761170027E-03,
2452257.501388889, A.D. 2001-Dec-14 00:02:00.0000, -8.148119996772552E+05, -1.136538716396026E+06, -4.830035457874698E+05,  3.421954621783345E-01, -1.149117638673211E-01,  3.485672280624152E-03,
2452258.501388889, A.D. 2001-Dec-15 00:02:00.0000, -7.847901969873497E+05, -1.146210670650248E+06, -4.826007026662724E+05,  3.526423289048017E-01, -1.089046930454730E-01,  5.869187179464998E-03,
2452259.501388889, A.D. 2001-Dec-16 00:02:00.0000, -7.538947617246585E+05, -1.155347125076562E+06, -4.819850710465765E+05,  3.624181948042442E-01, -1.025364954959672E-01,  8.401577969963832E-03,
2452260.501388889, A.D. 2001-Dec-17 00:02:00.0000, -7.221832621643184E+05, -1.163921956081335E+06, -4.811462642717435E+05,  3.715379907575044E-01, -9.592416610953393E-02,  1.102641690183821E-02,
2452261.501388889, A.D. 2001-Dec-18 00:02:00.0000, -6.897106373767597E+05, -1.171918473475569E+06, -4.800784459911212E+05,  3.800458133474835E-01, -8.915949154234508E-02,  1.369543046091602E-02,
2452262.501388889, A.D. 2001-Dec-19 00:02:00.0000, -6.565272132887712E+05, -1.179326298429617E+06, -4.787795556341146E+05,  3.880026765392433E-01, -8.230965537377896E-02,  1.636942085676024E-02,
2452263.501388889, A.D. 2001-Dec-20 00:02:00.0000, -6.226776566254882E+05, -1.186140416091258E+06, -4.772505582725292E+05,  3.954772913218825E-01, -7.542084844923641E-02,  1.901750066441677E-02,
2452264.501388889, A.D. 2001-Dec-21 00:02:00.0000, -5.882006321568011E+05, -1.192358830607831E+06, -4.754947733365629E+05,  4.025389485217291E-01, -6.852304403214640E-02,  2.161546034600266E-02,
2452265.501388889, A.D. 2001-Dec-22 00:02:00.0000, -5.531288771338577E+05, -1.197981532810324E+06, -4.735174224567687E+05,  4.092550421790613E-01, -6.163555533710782E-02,  2.414361158282002E-02,
2452266.501388889, A.D. 2001-Dec-23 00:02:00.0000, -5.174894072736841E+05, -1.203010052602038E+06, -4.713252459158245E+05,  4.156915831443436E-01, -5.477026947041221E-02,  2.658574869417231E-02,
2452267.501388889, A.D. 2001-Dec-24 00:02:00.0000, -4.813035003054955E+05, -1.207446673440661E+06, -4.689263054701547E+05,  4.219154651741777E-01, -4.793389787022389E-02,  2.892758153389910E-02,
2452268.501388889, A.D. 2001-Dec-25 00:02:00.0000, -4.445864911045971E+05, -1.211293899762275E+06, -4.663298008896928E+05,  4.279982055678173E-01, -4.112691664565941E-02,  3.115710708554336E-02,
2452269.501388889, A.D. 2001-Dec-26 00:02:00.0000, -4.073471848390652E+05, -1.214554023528414E+06, -4.635458331380993E+05,  4.340193885318208E-01, -3.433991844215610E-02,  3.326601994429874E-02,
2452270.501388889, A.D. 2001-Dec-27 00:02:00.0000, -3.695871776093824E+05, -1.217227641004676E+06, -4.605849724522797E+05,  4.400670423785160E-01, -2.754710734745602E-02,  3.525233918652867E-02,
2452271.501388889, A.D. 2001-Dec-28 00:02:00.0000, -3.313001334190000E+05, -1.219312552067325E+06, -4.574575375064326E+05,  4.462349402054315E-01, -2.069823661735208E-02,  3.712457437118432E-02,
2452272.501388889, A.D. 2001-Dec-29 00:02:00.0000, -2.924717169161345E+05, -1.220800362072138E+06, -4.541724780422851E+05,  4.526126034732097E-01, -1.371001044834736E-02,  3.890632770973675E-02,
2452273.501388889, A.D. 2001-Dec-30 00:02:00.0000, -2.530805653835426E+05, -1.221674164603482E+06, -4.507359322928914E+05,  4.592703009397507E-01, -6.462703365119528E-03,  4.063981632262191E-02,
2452274.501388889, A.D. 2001-Dec-31 00:02:00.0000, -2.131008367830738E+05, -1.221905236856017E+06, -4.471495646167280E+05,  4.662377005858646E-01,  1.196925674541288E-03,  4.238615146642122E-02,
2452275.501388889, A.D. 2002-Jan-01 00:02:00.0000, -1.725065583477179E+05, -1.221450521388405E+06, -4.434090493259136E+05,  4.734855752338215E-01,  9.440738893939050E-03,  4.422117296536812E-02,
2452276.501388889, A.D. 2002-Jan-02 00:02:00.0000, -1.312772873925461E+05, -1.220252173652613E+06, -4.395032199146078E+05,  4.809141229095140E-01,  1.843628182375273E-02,  4.622657057379249E-02,
2452277.501388889, A.D. 2002-Jan-03 00:02:00.0000, -8.940410290688951E+04, -1.218239125171579E+06, -4.354140042753875E+05,  4.883583648790909E-01,  2.832099496135866E-02,  4.847755236932094E-02,
2452278.501388889, A.D. 2002-Jan-04 00:02:00.0000, -4.689469855721971E+04, -1.215330214941266E+06, -4.311175117552607E+05,  4.956026694243254E-01,  3.918134296892065E-02,  5.103255789460625E-02,
